IRIDIUM 57              
1 25273U 98019B   25025.93272039  .00000771  00000+0  26041-3 0  9995
2 25273  86.3968 204.7984 0001998  92.7617 267.3808 14.35701057404379
IRIDIUM 63              
1 25286U 98021B   25025.86463653  .00001081  00000+0  36310-3 0  9993
2 25286  86.4029 141.8241 0002032  89.6469 270.4961 14.36345100403412
IRIDIUM 69              
1 25319U 98026A   25025.89504007  .00001521  00000+0  47033-3 0  9990
2 25319  86.4030 155.5130 0004048 115.6735 244.4883 14.40707298402817
IRIDIUM 71              
1 25320U 98026B   25025.85244716  .00001209  00000+0  37071-3 0  9990
2 25320  86.4028 150.2539 0002604 147.5947 212.5413 14.40931513403091
IRIDIUM 73              
1 25344U 98032C   25026.19325791  .00001399  00000+0  34608-3 0  9997
2 25344  86.4416 107.1410 0002799  99.9071 260.2450 14.51381929410260
IRIDIUM 82              
1 25467U 98051A   25025.84385704  .00035293  00000+0  12859-2 0  9998
2 25467  86.3729 179.1838 0102448 113.7162 247.4872 15.23122197402225
